{
  "norad_id": 63856,
  "name": "STARLINK-34002",
  "history": [
    {
      "epoch": "2026-03-28T15:58:43.519008Z",
      "apogee_km": 484.4177666800815,
      "perigee_km": 481.5072882605291,
      "latitude_deg": 4.321207365874349e-05,
      "longitude_deg": -94.98724312283187,
      "height_km": 482.56617024733015,
      "semi_major_axis_km": 6861.0995274703055,
      "eccentricity": 0.0002121,
      "inclination_deg": 43.006,
      "raan_deg": 330.777,
      "arg_perigee_deg": 276.8789,
      "mean_anomaly_deg": 83.1822,
      "mean_motion_rev_day": 15.27608911
    },
    {
      "epoch": "2026-03-28T22:15:19.896768Z",
      "apogee_km": 484.20643700870914,
      "perigee_km": 481.44146974449814,
      "latitude_deg": -2.4681316751141713e-05,
      "longitude_deg": 169.12773253413258,
      "height_km": 482.3576132121334,
      "semi_major_axis_km": 6860.960953376603,
      "eccentricity": 0.0002015,
      "inclination_deg": 43.0038,
      "raan_deg": 329.3014,
      "arg_perigee_deg": 280.1637,
      "mean_anomaly_deg": 79.8987,
      "mean_motion_rev_day": 15.27655192
    },
    {
      "epoch": "2026-03-30T00:56:00.018240Z",
      "apogee_km": 484.22905663656275,
      "perigee_km": 481.75081758687884,
      "latitude_deg": 5.5511022263542575e-06,
      "longitude_deg": 121.58607370771692,
      "height_km": 482.8217514095275,
      "semi_major_axis_km": 6861.1269371117205,
      "eccentricity": 0.0001806,
      "inclination_deg": 43.0037,
      "raan_deg": 323.0225,
      "arg_perigee_deg": 267.4844,
      "mean_anomaly_deg": 92.5801,
      "mean_motion_rev_day": 15.27599757
    },
    {
      "epoch": "2026-03-30T00:56:00.019104Z",
      "apogee_km": 484.2293996929093,
      "perigee_km": 481.7504745305314,
      "latitude_deg": 9.478335656712744e-06,
      "longitude_deg": 121.58607428548854,
      "height_km": 482.82176646496436,
      "semi_major_axis_km": 6861.1269371117205,
      "eccentricity": 0.00018065,
      "inclination_deg": 43.0037,
      "raan_deg": 323.0225,
      "arg_perigee_deg": 267.4844,
      "mean_anomaly_deg": 92.5801,
      "mean_motion_rev_day": 15.27599757
    },
    {
      "epoch": "2026-03-30T08:46:47.988480Z",
      "apogee_km": 483.49942641750204,
      "perigee_km": 482.5992387706656,
      "latitude_deg": -1.2147429889136652e-05,
      "longitude_deg": 1.719128400836561,
      "height_km": 482.50301011171837,
      "semi_major_axis_km": 6861.186332594083,
      "eccentricity": 6.56e-05,
      "inclination_deg": 42.9973,
      "raan_deg": 321.1777,
      "arg_perigee_deg": 44.5066,
      "mean_anomaly_deg": 315.5838,
      "mean_motion_rev_day": 15.27579921
    },
    {
      "epoch": "2026-03-30T16:37:34.367232Z",
      "apogee_km": 483.66377610787094,
      "perigee_km": 482.3760741761607,
      "latitude_deg": -7.2824924431237955e-06,
      "longitude_deg": -118.14614348566771,
      "height_km": 483.1522945358131,
      "semi_major_axis_km": 6861.156925142016,
      "eccentricity": 9.384e-05,
      "inclination_deg": 43.0018,
      "raan_deg": 319.3279,
      "arg_perigee_deg": 236.4263,
      "mean_anomaly_deg": 123.6499,
      "mean_motion_rev_day": 15.27589742
    },
    {
      "epoch": "2026-03-31T08:19:08.408640Z",
      "apogee_km": 483.58035626103356,
      "perigee_km": 482.4750226295637,
      "latitude_deg": 5.289688462963216e-05,
      "longitude_deg": 2.124302379890116,
      "height_km": 482.9982492860654,
      "semi_major_axis_km": 6861.164689445298,
      "eccentricity": 8.055e-05,
      "inclination_deg": 42.9992,
      "raan_deg": 315.6346,
      "arg_perigee_deg": 249.3896,
      "mean_anomaly_deg": 110.687,
      "mean_motion_rev_day": 15.27587149
    },
    {
      "epoch": "2026-04-01T00:00:42.566688Z",
      "apogee_km": 483.25097413407,
      "perigee_km": 482.81625036407877,
      "latitude_deg": 1.7090546331512813e-05,
      "longitude_deg": 122.39595862462362,
      "height_km": 483.01234835147204,
      "semi_major_axis_km": 6861.170612249074,
      "eccentricity": 3.168e-05,
      "inclination_deg": 43.0006,
      "raan_deg": 311.9431,
      "arg_perigee_deg": 200.8125,
      "mean_anomaly_deg": 159.2714,
      "mean_motion_rev_day": 15.27585171
    },
    {
      "epoch": "2026-04-02T15:14:36.891744Z",
      "apogee_km": 483.86432526492536,
      "perigee_km": 482.1310654181889,
      "latitude_deg": -4.3484052026571276e-05,
      "longitude_deg": -116.92314970127717,
      "height_km": 482.9071267552812,
      "semi_major_axis_km": 6861.134695341557,
      "eccentricity": 0.00012631,
      "inclination_deg": 43.0027,
      "raan_deg": 302.7116,
      "arg_perigee_deg": 261.2007,
      "mean_anomaly_deg": 98.8701,
      "mean_motion_rev_day": 15.27597166
    },
    {
      "epoch": "2026-04-02T21:31:13.951200Z",
      "apogee_km": 483.9113216968308,
      "perigee_km": 481.96113024308033,
      "latitude_deg": -3.810185274345964e-05,
      "longitude_deg": 147.1878561948443,
      "height_km": 482.8057001188774,
      "semi_major_axis_km": 6861.073225969955,
      "eccentricity": 0.00014212,
      "inclination_deg": 43.0033,
      "raan_deg": 301.2348,
      "arg_perigee_deg": 264.5622,
      "mean_anomaly_deg": 95.5067,
      "mean_motion_rev_day": 15.27617695
    },
    {
      "epoch": "2026-04-03T14:46:57.226368Z",
      "apogee_km": 483.94098344539,
      "perigee_km": 482.084356344717,
      "latitude_deg": -2.045257131178865e-05,
      "longitude_deg": -116.51566416778758,
      "height_km": 483.2720900749509,
      "semi_major_axis_km": 6861.149669895053,
      "eccentricity": 0.0001353,
      "inclination_deg": 43.0016,
      "raan_deg": 297.1705,
      "arg_perigee_deg": 238.6612,
      "mean_anomaly_deg": 121.4107,
      "mean_motion_rev_day": 15.27592165
    },
    {
      "epoch": "2026-04-04T14:19:18.389568Z",
      "apogee_km": 484.11786537035096,
      "perigee_km": 481.92503912901066,
      "latitude_deg": 5.807485779739895e-05,
      "longitude_deg": -116.10898211411937,
      "height_km": 483.1296913763558,
      "semi_major_axis_km": 6861.1584522496805,
      "eccentricity": 0.0001598,
      "inclination_deg": 43.0038,
      "raan_deg": 291.632,
      "arg_perigee_deg": 252.425,
      "mean_anomaly_deg": 107.6428,
      "mean_motion_rev_day": 15.27589232
    },
    {
      "epoch": "2026-04-05T13:51:38.897856Z",
      "apogee_km": 483.8425036671624,
      "perigee_km": 482.145059911747,
      "latitude_deg": -1.1897062924602669e-05,
      "longitude_deg": -115.700722958338,
      "height_km": 482.95121176794765,
      "semi_major_axis_km": 6861.130781789454,
      "eccentricity": 0.0001237,
      "inclination_deg": 43.0023,
      "raan_deg": 286.0925,
      "arg_perigee_deg": 257.71,
      "mean_anomaly_deg": 102.3613,
      "mean_motion_rev_day": 15.27598473
    },
    {
      "epoch": "2026-04-05T13:51:38.898720Z",
      "apogee_km": 483.8423664445454,
      "perigee_km": 482.1451971343631,
      "latitude_deg": -1.3408594153534257e-05,
      "longitude_deg": -115.7007281800654,
      "height_km": 482.95118256013143,
      "semi_major_axis_km": 6861.130781789454,
      "eccentricity": 0.00012368,
      "inclination_deg": 43.0023,
      "raan_deg": 286.0925,
      "arg_perigee_deg": 257.71,
      "mean_anomaly_deg": 102.3613,
      "mean_motion_rev_day": 15.27598473
    },
    {
      "epoch": "2026-04-07T05:05:34.210464Z",
      "apogee_km": 484.08002768944516,
      "perigee_km": 481.99505396997756,
      "latitude_deg": 1.78321910025781e-05,
      "longitude_deg": 4.977533409717946,
      "height_km": 482.69126766347586,
      "semi_major_axis_km": 6861.174540829711,
      "eccentricity": 0.00015194,
      "inclination_deg": 43.0033,
      "raan_deg": 276.8624,
      "arg_perigee_deg": 276.8007,
      "mean_anomaly_deg": 83.2672,
      "mean_motion_rev_day": 15.27583859
    },
    {
      "epoch": "2026-04-08T12:28:41.417184Z",
      "apogee_km": 484.0874842258445,
      "perigee_km": 481.94872495664185,
      "latitude_deg": -3.3098357746602334e-06,
      "longitude_deg": -114.47697096585063,
      "height_km": 482.7780387379894,
      "semi_major_axis_km": 6861.155104591243,
      "eccentricity": 0.00015586,
      "inclination_deg": 43.002,
      "raan_deg": 269.4769,
      "arg_perigee_deg": 270.9174,
      "mean_anomaly_deg": 89.1499,
      "mean_motion_rev_day": 15.2759035
    },
    {
      "epoch": "2026-04-10T11:33:23.237280Z",
      "apogee_km": 484.01974973913184,
      "perigee_km": 482.06705779621825,
      "latitude_deg": 2.0453497797264214e-05,
      "longitude_deg": -113.6640379604395,
      "height_km": 482.9772358490445,
      "semi_major_axis_km": 6861.180403767675,
      "eccentricity": 0.0001423,
      "inclination_deg": 43.001,
      "raan_deg": 258.3975,
      "arg_perigee_deg": 260.7441,
      "mean_anomaly_deg": 99.325,
      "mean_motion_rev_day": 15.27581901
    },
    {
      "epoch": "2026-04-11T17:22:21.789120Z",
      "apogee_km": 484.0923903166331,
      "perigee_km": 481.9722889906798,
      "latitude_deg": 2.7191711357581822e-05,
      "longitude_deg": 150.85279039224318,
      "height_km": 482.79860091418897,
      "semi_major_axis_km": 6861.169339653656,
      "eccentricity": 0.0001545,
      "inclination_deg": 43.0027,
      "raan_deg": 251.3828,
      "arg_perigee_deg": 270.5869,
      "mean_anomaly_deg": 89.4806,
      "mean_motion_rev_day": 15.27585596
    },
    {
      "epoch": "2026-04-13T02:19:38.746272Z",
      "apogee_km": 484.41923447591125,
      "perigee_km": 481.58901376221274,
      "latitude_deg": 1.607073122880375e-06,
      "longitude_deg": 7.423205565948356,
      "height_km": 482.6695993960927,
      "semi_major_axis_km": 6861.141124119062,
      "eccentricity": 0.00020625,
      "inclination_deg": 43.0002,
      "raan_deg": 243.6273,
      "arg_perigee_deg": 274.5304,
      "mean_anomaly_deg": 85.5312,
      "mean_motion_rev_day": 15.27595019
    }
  ]
}